QIANFAN-89              
1 63175U 25046S   25303.77108666  .00000102  00000+0  13943-3 0  9998
2 63175  88.9769 324.4888 0014677 247.0244 112.9359 13.50973863 41602
QIANFAN-90              
1 63176U 25046T   25303.79981032  .00000026  00000+0  22177-4 0  9992
2 63176  88.9770 324.4582 0011645 244.0663 115.9289 13.50973974 41620
